ONEWEB-0033             
1 45142U 20008M   24304.53335528 -.00000466  00000+0 -13718-2 0  9992
2 45142  87.8906 154.6981 0001533  72.3485 287.7810 13.10371875230331
ONEWEB-0035             
1 45143U 20008N   24304.56489613  .00000296  00000+0  81213-3 0  9996
2 45143  87.8920 154.6805 0001569  77.6545 282.4758 13.10377150230062
ONEWEB-0036             
1 45144U 20008P   24304.55492201 -.00000248  00000+0 -74685-3 0  9997
2 45144  87.8915 154.6341 0001352  90.0533 270.0749 13.10376761230495
ONEWEB-0038             
1 45145U 20008Q   24304.49983576 -.00000498  00000+0 -14411-2 0  9998
2 45145  87.8893 139.5312 0002255  94.4287 265.7099 13.11416384232384
ONEWEB-0039             
1 45146U 20008R   24304.30758844 -.00000602  00000+0 -17617-2 0  9995
2 45146  87.8911 154.7026 0001516  97.4741 262.6559 13.10371911230250
ONEWEB-0040             
1 45147U 20008S   24304.60638148 -.00000289  00000+0 -86427-3 0  9990
2 45147  87.8917 154.6535 0001534  82.6192 277.5110 13.10369831229992
ONEWEB-0043             
1 45149U 20008U   24304.30260672 -.00000323  00000+0 -96277-3 0  9995
2 45149  87.8910 154.7133 0001474 100.7101 259.4192 13.10370904230272
ONEWEB-0044             
1 45150U 20008V   24304.55991224 -.00000013  00000+0 -73163-4 0  9994
2 45150  87.8919 154.6564 0001525  91.7613 268.3689 13.10377100230606
